NORAD_CAT_ID,OBJECT_NAME,OBJECT_TYPE,EPOCH,MEAN_MOTION,ECCENTRICITY,INCLINATION,RA_OF_ASC_NODE,ARG_OF_PERICENTER,MEAN_ANOMALY,BSTAR,MEAN_MOTION_DOT,MEAN_MOTION_DDOT,TLE_LINE0,TLE_LINE1,TLE_LINE2,SEMIMAJOR_AXIS,PERIOD,APOGEE,PERIGEE,DECAYED
56774.0,STARLINK-6190,PAYLOAD,2024-01-22 18:20:51,14.98326391,0.0002821,70.0012,163.2656,266.4505,93.6331,3.0552e-05,2.72e-06,0.0,0 STARLINK-6190,1 56774U 23078H   24022.76448254  .00000272  00000-0  30552-4 0  9999,2 56774  70.0012 163.2656 0002821 266.4505  93.6331 14.98326391 35819,6950.204,96.107,574.03,570.108,0.0
56774.0,STARLINK-6190,PAYLOAD,2024-01-23 11:58:19,14.98334739,0.0002861,70.0011,161.4142,263.9257,96.1576,1.707e-05,1.11e-06,0.0,0 STARLINK-6190,1 56774U 23078H   24023.49883656  .00000111  00000-0  17070-4 0  9991,2 56774  70.0011 161.4142 0002861 263.9257  96.1576 14.98334739 36183,6950.178,96.107,574.032,570.055,0.0
56774.0,STARLINK-6190,PAYLOAD,2024-01-23 18:22:51,14.9833557,0.0002856,70.0012,160.7414,263.9731,96.1103,2.4919e-05,2.04e-06,0.0,0 STARLINK-6190,1 56774U 23078H   24023.76587494  .00000204  00000-0  24919-4 0  9995,2 56774  70.0012 160.7414 0002856 263.9731  96.1103 14.98335570 35964,6950.176,96.107,574.026,570.056,0.0
56774.0,STARLINK-6190,PAYLOAD,2024-01-24 12:00:22,14.98320635,0.0002693,70.0007,158.8893,251.7728,108.3138,-4.2873e-06,-1.44e-06,0.0,0 STARLINK-6190,1 56774U 23078H   24024.50026001 -.00000144  00000-0 -42873-5 0  9995,2 56774  70.0007 158.8893 0002693 251.7728 108.3138 14.98320635 36339,6950.222,96.108,573.959,570.215,0.0
56774.0,STARLINK-6190,PAYLOAD,2024-01-24 13:36:31,14.98312382,0.0002608,70.0011,158.7211,252.8654,107.222,-8.8078e-05,-1.143e-05,0.0,0 STARLINK-6190,1 56774U 23078H   24024.56702774 -.00001143  00000-0 -88078-4 0  9995,2 56774  70.0011 158.7211 0002608 252.8654 107.2220 14.98312382 36085,6950.247,96.108,573.925,570.3,0.0
56774.0,STARLINK-6190,PAYLOAD,2024-01-24 18:24:54,14.98323255,0.0002966,70.0007,158.2164,263.6865,96.3956,3.475e-05,3.22e-06,0.0,0 STARLINK-6190,1 56774U 23078H   24024.76729984  .00000322  00000-0  34750-4 0  9993,2 56774  70.0007 158.2164 0002966 263.6865  96.3956 14.98323255 36112,6950.214,96.107,574.14,570.017,0.0
56774.0,STARLINK-6190,PAYLOAD,2024-01-25 12:02:22,14.98340779,0.0003449,69.9998,156.3638,271.3213,88.755,0.00011319,1.258e-05,0.0,0 STARLINK-6190,1 56774U 23078H   24025.50164719  .00001258  00000-0  11319-3 0  9999,2 56774  69.9998 156.3638 0003449 271.3213  88.7550 14.98340779 36488,6950.16,96.106,574.422,569.627,0.0
56774.0,STARLINK-6190,PAYLOAD,2024-01-25 13:38:30,14.98341054,0.0003388,69.9999,156.1955,271.0012,89.0759,0.00012224,1.366e-05,0.0,0 STARLINK-6190,1 56774U 23078H   24025.56840634  .00001366  00000-0  12224-3 0  9998,2 56774  69.9999 156.1955 0003388 271.0012  89.0759 14.98341054 36230,6950.159,96.106,574.378,569.669,0.0
56774.0,STARLINK-6190,PAYLOAD,2024-01-25 18:26:53,14.98349213,0.0003237,70.0002,155.6921,267.496,92.5829,0.00019441,2.229e-05,0.0,0 STARLINK-6190,1 56774U 23078H   24025.76867756  .00002229  00000-0  19441-3 0  9991,2 56774  70.0002 155.6921 0003237 267.4960  92.5829 14.98349213 36523,6950.133,96.106,574.248,569.749,0.0
56774.0,STARLINK-6190,PAYLOAD,2024-01-26 10:28:15,14.98342476,0.0002956,70.0007,154.0095,261.1795,98.9029,0.00012822,1.438e-05,0.0,0 STARLINK-6190,1 56774U 23078H   24026.43628524  .00001438  00000-0  12822-3 0  9991,2 56774  70.0007 154.0095 0002956 261.1795  98.9029 14.98342476 36624,6950.154,96.106,574.074,569.965,0.0
56774.0,STARLINK-6190,PAYLOAD,2024-01-26 13:40:30,14.98339334,0.0002527,70.0016,153.6732,250.7052,109.3834,0.00022921,2.644e-05,0.0,0 STARLINK-6190,1 56774U 23078H   24026.56980292  .00002644  00000-0  22921-3 0  9999,2 56774  70.0016 153.6732 0002527 250.7052 109.3834 14.98339334 36384,6950.164,96.106,573.785,570.273,0.0
56774.0,STARLINK-6190,PAYLOAD,2024-01-27 12:06:24,14.98335801,0.0002942,70.001,151.3159,276.24,83.8424,-0.0001821,-2.265e-05,0.0,0 STARLINK-6190,1 56774U 23078H   24027.50445093 -.00002265  00000-0 -18210-3 0  9996,2 56774  70.0010 151.3159 0002942 276.2400  83.8424 14.98335801 36787,6950.175,96.107,574.085,569.995,0.0
56774.0,STARLINK-6190,PAYLOAD,2024-01-27 18:30:56,14.98337048,0.0002748,70.0012,150.6426,272.1392,87.9452,-0.00015208,-1.907e-05,0.0,0 STARLINK-6190,1 56774U 23078H   24027.77148776 -.00001907  00000-0 -15208-3 0  9999,2 56774  70.0012 150.6426 0002748 272.1392  87.9452 14.98337048 36564,6950.171,96.107,573.946,570.126,0.0
56774.0,STARLINK-6190,PAYLOAD,2024-01-28 12:08:24,14.98333653,0.0002882,70.0005,148.7901,270.9329,89.15,-9.3408e-05,-1.207e-05,0.0,0 STARLINK-6190,1 56774U 23078H   24028.50584484 -.00001207  00000-0 -93408-4 0  9993,2 56774  70.0005 148.7901 0002882 270.9329  89.1500 14.98333653 36934,6950.182,96.107,574.05,570.044,0.0
56774.0,STARLINK-6190,PAYLOAD,2024-01-28 16:56:48,14.98338557,0.000277,70.0007,148.2854,269.554,90.5301,-5.2542e-05,-7.2e-06,0.0,0 STARLINK-6190,1 56774U 23078H   24028.70611977 -.00000720  00000-0 -52542-4 0  9996,2 56774  70.0007 148.2854 0002770 269.5540  90.5301 14.98338557 36701,6950.166,96.106,573.957,570.106,0.0
56774.0,STARLINK-6190,PAYLOAD,2024-01-29 12:10:25,14.9833231,0.0002659,70.0008,146.2659,266.4183,93.6672,0.00011897,1.327e-05,0.0,0 STARLINK-6190,1 56774U 23078H   24029.50723656  .00001327  00000-0  11897-3 0  9992,2 56774  70.0008 146.2659 0002659 266.4183  93.6672 14.98332310 36827,6950.186,96.107,573.899,570.203,0.0
56774.0,STARLINK-6190,PAYLOAD,2024-01-30 12:12:26,14.98331036,0.0002881,70.0005,143.7415,264.0722,96.0109,-3.8713e-05,-5.55e-06,0.0,0 STARLINK-6190,1 56774U 23078H   24030.50864114 -.00000555  00000-0 -38713-4 0  9990,2 56774  70.0005 143.7415 0002881 264.0722  96.0109 14.98331036 37238,6950.19,96.107,574.057,570.052,0.0
56774.0,STARLINK-6190,PAYLOAD,2024-01-30 13:48:34,14.98329693,0.0002902,70.0002,143.5725,263.5091,96.5737,-5.2322e-05,-7.17e-06,0.0,0 STARLINK-6190,1 56774U 23078H   24030.57540226 -.00000717  00000-0 -52322-4 0  9994,2 56774  70.0002 143.5725 0002902 263.5091  96.5737 14.98329693 36983,6950.194,96.107,574.076,570.042,0.0
56774.0,STARLINK-6190,PAYLOAD,2024-01-30 17:00:50,14.98329212,0.0003071,70.0001,143.2361,269.6605,90.4202,-6.9332e-05,-9.2e-06,0.0,0 STARLINK-6190,1 56774U 23078H   24030.70892341 -.00000920  00000-0 -69332-4 0  9992,2 56774  70.0001 143.2361 0003071 269.6605  90.4202 14.98329212 37002,6950.195,96.107,574.195,569.926,0.0
56774.0,STARLINK-6190,PAYLOAD,2024-01-31 12:14:27,14.98331532,0.0003216,70.0,141.2157,270.5015,89.5776,-6.3376e-06,-1.69e-06,0.0,0 STARLINK-6190,1 56774U 23078H   24031.51003949 -.00000169  00000-0 -63376-5 0  9998,2 56774  70.0000 141.2157 0003216 270.5015  89.5776 14.98331532 37383,6950.188,96.107,574.288,569.818,0.0
56774.0,STARLINK-6190,PAYLOAD,2024-01-31 17:02:51,14.98336969,0.0003119,70.0001,140.7108,270.8603,89.2199,4.9023e-05,4.92e-06,0.0,0 STARLINK-6190,1 56774U 23078H   24031.71031396  .00000492  00000-0  49023-4 0  9996,2 56774  70.0001 140.7108 0003119 270.8603  89.2199 14.98336969 37152,6950.171,96.107,574.204,569.869,0.0
56774.0,STARLINK-6190,PAYLOAD,2024-02-01 10:40:20,14.98326457,0.0003031,70.0004,138.8585,271.0395,89.0416,4.9442e-05,4.97e-06,0.0,0 STARLINK-6190,1 56774U 23078H   24032.44467993  .00000497  00000-0  49442-4 0  9993,2 56774  70.0004 138.8585 0003031 271.0395  89.0416 14.98326457 37528,6950.204,96.107,574.175,569.962,0.0
56774.0,STARLINK-6190,PAYLOAD,2024-02-02 12:18:28,14.98335563,0.0002743,70.0008,136.1647,272.8802,87.2043,3.4283e-05,3.16e-06,0.0,0 STARLINK-6190,1 56774U 23078H   24033.51283342  .00000316  00000-0  34283-4 0  9993,2 56774  70.0008 136.1647 0002743 272.8802  87.2043 14.98335563 37684,6950.176,96.107,573.947,570.134,0.0
56774.0,STARLINK-6190,PAYLOAD,2024-02-02 13:54:36,14.98335613,0.0002721,70.0008,135.9966,272.5508,87.5339,3.4794e-05,3.22e-06,0.0,0 STARLINK-6190,1 56774U 23078H   24033.57959316  .00000322  00000-0  34794-4 0  9994,2 56774  70.0008 135.9966 0002721 272.5508  87.5339 14.98335613 37431,6950.176,96.107,573.932,570.149,0.0
56774.0,STARLINK-6190,PAYLOAD,2024-02-02 17:06:52,14.98337789,0.0002707,70.0011,135.661,271.6613,88.4236,5.3599e-05,5.47e-06,0.0,0 STARLINK-6190,1 56774U 23078H   24033.71311067  .00000547  00000-0  53599-4 0  9998,2 56774  70.0011 135.6610 0002707 271.6613  88.4236 14.98337789 37453,6950.169,96.106,573.915,570.152,0.0
56774.0,STARLINK-6190,PAYLOAD,2024-02-03 12:20:30,14.98322952,0.0003107,70.0002,133.6415,268.7277,91.3526,-8.4598e-05,-1.102e-05,0.0,0 STARLINK-6190,1 56774U 23078H   24034.51424339 -.00001102  00000-0 -84598-4 0  9997,2 56774  70.0002 133.6415 0003107 268.7277  91.3526 14.98322952 37835,6950.215,96.107,574.239,569.92,0.0
56774.0,STARLINK-6190,PAYLOAD,2024-02-03 15:32:47,14.98319728,0.0002582,70.0016,133.3065,255.2715,104.8158,-0.00011621,-1.479e-05,0.0,0 STARLINK-6190,1 56774U 23078H   24034.64776662 -.00001479  00000-0 -11621-3 0  9993,2 56774  70.0016 133.3065 0002582 255.2715 104.8158 14.98319728 37593,6950.225,96.108,573.884,570.295,0.0
56774.0,STARLINK-6190,PAYLOAD,2024-02-04 10:46:22,14.98336819,0.0002842,70.0011,131.2867,259.5444,100.5394,-6.5361e-07,-1.01e-06,0.0,0 STARLINK-6190,1 56774U 23078H   24035.44887247 -.00000101  00000-0 -65361-6 0  9998,2 56774  70.0011 131.2867 0002842 259.5444 100.5394 14.98336819 37977,6950.172,96.107,574.012,570.062,0.0
56774.0,STARLINK-6190,PAYLOAD,2024-02-04 13:58:38,14.98338148,0.0002902,70.0009,130.9498,261.2365,98.8465,4.1113e-05,3.98e-06,0.0,0 STARLINK-6190,1 56774U 23078H   24035.58239003  .00000398  00000-0  41113-4 0  9997,2 56774  70.0009 130.9498 0002902 261.2365  98.8465 14.98338148 37738,6950.168,96.106,574.05,570.016,0.0
56774.0,STARLINK-6190,PAYLOAD,2024-02-04 15:34:46,14.98338471,0.000293,70.0009,130.7814,262.5844,97.4982,4.7873e-05,4.78e-06,0.0,0 STARLINK-6190,1 56774U 23078H   24035.64914937  .00000478  00000-0  47873-4 0  9998,2 56774  70.0009 130.7814 0002930 262.5844  97.4982 14.98338471 37744,6950.167,96.106,574.068,569.995,0.0
